STARLINK-34687          
1 64909U 25157F   25306.10521062  .00045050  00000+0  11292-2 0  9991
2 64909  53.1617 224.4237 0000795  27.9488 332.1560 15.39630376 16455
STARLINK-34642          
1 64910U 25157G   25306.10065949  .00020663  00000+0  52503-3 0  9994
2 64910  53.1607 225.1107 0001083  84.5063 275.6066 15.39627147 16497
STARLINK-34718          
1 64911U 25157H   25305.89662973  .00039543  00000+0  99322-3 0  9997
2 64911  53.1602 225.9724 0001068  71.0325 289.0795 15.39626334 16463
STARLINK-34711          
1 64912U 25157J   25305.76248524  .00088315  00000+0  21887-2 0  9997
2 64912  53.1586 226.5523 0001306  69.0592 291.0553 15.39670581 16443
STARLINK-34659          
1 64913U 25157K   25305.42862802  .00088330  00000+0  21987-2 0  9990
2 64913  53.1593 228.0236 0001668  53.2239 306.8919 15.39536143 16349
STARLINK-34571          
1 64914U 25157L   25306.06815355  .00063869  00000+0  15932-2 0  9996
2 64914  53.1601 224.9049 0001408  94.7346 265.3819 15.39623254 16447
STARLINK-34636          
1 64915U 25157M   25306.05887228  .00067537  00000+0  16794-2 0  9997
2 64915  53.1587 224.8427 0001395  92.8117 267.3048 15.39693622 16497
STARLINK-34695          
1 64916U 25157N   25306.24937576 -.01227779  00000+0 -36727-1 0  9997
2 64916  53.1596 223.8996 0003990 101.2718 258.8735 15.37111655 16524
STARLINK-34653          
1 64917U 25157P   25306.04493803  .00044216  00000+0  11078-2 0  9999
2 64917  53.1611 224.7578 0001323  57.0135 303.0997 15.39653550 16449
STARLINK-34611          
1 64918U 25157Q   25306.09605590 -.00662380  00000+0 -17407-1 0  9994
2 64918  53.1589 225.0818 0001910 168.0634 192.0417 15.40296585 16495
STARLINK-34599          
1 64919U 25157R   25306.33335648  .00033091  00000+0  83430-3 0  9996
2 64919  53.1596 223.4444 0001097 102.8701  29.1703 15.39596529  5910
STARLINK-34069          
1 64920U 25157S   25306.28651919  .00078174  00000+0  19715-2 0  9999
2 64920  53.1590 224.1355 0004731  63.8534 296.2957 15.39189033 16528
STARLINK-34699          
1 64921U 25157T   25306.02181169  .00053235  00000+0  13307-2 0  9999
2 64921  53.1605 225.3267 0001885 130.2255 229.8915 15.39640665 16481
STARLINK-34700          
1 64922U 25157U   25306.27218211  .00072731  00000+0  18079-2 0  9999
2 64922  53.1582 224.0453 0001182 116.5300 243.5826 15.39671654 16472
STARLINK-34643          
1 64923U 25157V   25306.06849525  .00078987  00000+0  19610-2 0  9996
2 64923  53.1588 224.9036 0000813  91.0481 269.0618 15.39670348 16495
STARLINK-34199          
1 64924U 25157W   25306.33335648  .00030614  00000+0  77275-3 0  9990
2 64924  53.1581 223.7076 0001308  80.2787 283.0049 15.39600673  5866
