[{"OBJECT_NAME":"STARLINK-34687","OBJECT_ID":"2025-157F","EPOCH":"2025-11-02T02:31:30.197568","MEAN_MOTION":15.39630376,"ECCENTRICITY":7.951e-5,"INCLINATION":53.1617,"RA_OF_ASC_NODE":224.4237,"ARG_OF_PERICENTER":27.9488,"MEAN_ANOMALY":332.156,"EPHEMERIS_TYPE":0,"CLASSIFICATION_TYPE":"U","NORAD_CAT_ID":64909,"ELEMENT_SET_NO":999,"REV_AT_EPOCH":1645,"BSTAR":0.0011292071,"MEAN_MOTION_DOT":0.0004505,"MEAN_MOTION_DDOT":0},{"OBJECT_NAME":"STARLINK-34642","OBJECT_ID":"2025-157G","EPOCH":"2025-11-02T02:24:56.979936","MEAN_MOTION":15.39627147,"ECCENTRICITY":0.00010839,"INCLINATION":53.1607,"RA_OF_ASC_NODE":225.1107,"ARG_OF_PERICENTER":84.5063,"MEAN_ANOMALY":275.6066,"EPHEMERIS_TYPE":0,"CLASSIFICATION_TYPE":"U","NORAD_CAT_ID":64910,"ELEMENT_SET_NO":999,"REV_AT_EPOCH":1649,"BSTAR":0.00052502696,"MEAN_MOTION_DOT":0.00020663,"MEAN_MOTION_DDOT":0},{"OBJECT_NAME":"STARLINK-34718","OBJECT_ID":"2025-157H","EPOCH":"2025-11-01T21:31:08.808672","MEAN_MOTION":15.39626334,"ECCENTRICITY":0.0001068,"INCLINATION":53.1602,"RA_OF_ASC_NODE":225.9724,"ARG_OF_PERICENTER":71.0325,"MEAN_ANOMALY":289.0795,"EPHEMERIS_TYPE":0,"CLASSIFICATION_TYPE":"U","NORAD_CAT_ID":64911,"ELEMENT_SET_NO":999,"REV_AT_EPOCH":1646,"BSTAR":0.00099321612,"MEAN_MOTION_DOT":0.00039543,"MEAN_MOTION_DDOT":0},{"OBJECT_NAME":"STARLINK-34711","OBJECT_ID":"2025-157J","EPOCH":"2025-11-01T18:17:58.724736","MEAN_MOTION":15.39670581,"ECCENTRICITY":0.00013065,"INCLINATION":53.1586,"RA_OF_ASC_NODE":226.5523,"ARG_OF_PERICENTER":69.0592,"MEAN_ANOMALY":291.0553,"EPHEMERIS_TYPE":0,"CLASSIFICATION_TYPE":"U","NORAD_CAT_ID":64912,"ELEMENT_SET_NO":999,"REV_AT_EPOCH":1644,"BSTAR":0.0021887367,"MEAN_MOTION_DOT":0.00088315,"MEAN_MOTION_DDOT":0},{"OBJECT_NAME":"STARLINK-34659","OBJECT_ID":"2025-157K","EPOCH":"2025-11-01T10:17:13.460928","MEAN_MOTION":15.39536143,"ECCENTRICITY":0.00016686,"INCLINATION":53.1593,"RA_OF_ASC_NODE":228.0236,"ARG_OF_PERICENTER":53.2239,"MEAN_ANOMALY":306.8919,"EPHEMERIS_TYPE":0,"CLASSIFICATION_TYPE":"U","NORAD_CAT_ID":64913,"ELEMENT_SET_NO":999,"REV_AT_EPOCH":1634,"BSTAR":0.0021987472,"MEAN_MOTION_DOT":0.0008833,"MEAN_MOTION_DDOT":0},{"OBJECT_NAME":"STARLINK-34571","OBJECT_ID":"2025-157L","EPOCH":"2025-11-02T01:38:08.466720","MEAN_MOTION":15.39623254,"ECCENTRICITY":0.00014087,"INCLINATION":53.1601,"RA_OF_ASC_NODE":224.9049,"ARG_OF_PERICENTER":94.7346,"MEAN_ANOMALY":265.3819,"EPHEMERIS_TYPE":0,"CLASSIFICATION_TYPE":"U","NORAD_CAT_ID":64914,"ELEMENT_SET_NO":999,"REV_AT_EPOCH":1644,"BSTAR":0.0015931905,"MEAN_MOTION_DOT":0.00063869,"MEAN_MOTION_DDOT":0},{"OBJECT_NAME":"STARLINK-34636","OBJECT_ID":"2025-157M","EPOCH":"2025-11-02T01:24:46.564992","MEAN_MOTION":15.39693622,"ECCENTRICITY":0.00013952,"INCLINATION":53.1587,"RA_OF_ASC_NODE":224.8427,"ARG_OF_PERICENTER":92.8117,"MEAN_ANOMALY":267.3048,"EPHEMERIS_TYPE":0,"CLASSIFICATION_TYPE":"U","NORAD_CAT_ID":64915,"ELEMENT_SET_NO":999,"REV_AT_EPOCH":1649,"BSTAR":0.0016794084,"MEAN_MOTION_DOT":0.00067537,"MEAN_MOTION_DDOT":0},{"OBJECT_NAME":"STARLINK-34695","OBJECT_ID":"2025-157N","EPOCH":"2025-11-02T05:59:06.065664","MEAN_MOTION":15.37111655,"ECCENTRICITY":0.00039909,"INCLINATION":53.1596,"RA_OF_ASC_NODE":223.8996,"ARG_OF_PERICENTER":101.2718,"MEAN_ANOMALY":258.8735,"EPHEMERIS_TYPE":0,"CLASSIFICATION_TYPE":"U","NORAD_CAT_ID":64916,"ELEMENT_SET_NO":999,"REV_AT_EPOCH":1652,"BSTAR":-0.03672735,"MEAN_MOTION_DOT":-0.01227779,"MEAN_MOTION_DDOT":0},{"OBJECT_NAME":"STARLINK-34653","OBJECT_ID":"2025-157P","EPOCH":"2025-11-02T01:04:42.645792","MEAN_MOTION":15.3965355,"ECCENTRICITY":0.00013232,"INCLINATION":53.1611,"RA_OF_ASC_NODE":224.7578,"ARG_OF_PERICENTER":57.0135,"MEAN_ANOMALY":303.0997,"EPHEMERIS_TYPE":0,"CLASSIFICATION_TYPE":"U","NORAD_CAT_ID":64917,"ELEMENT_SET_NO":999,"REV_AT_EPOCH":1644,"BSTAR":0.001107762,"MEAN_MOTION_DOT":0.00044216,"MEAN_MOTION_DDOT":0},{"OBJECT_NAME":"STARLINK-34611","OBJECT_ID":"2025-157Q","EPOCH":"2025-11-02T02:18:19.229760","MEAN_MOTION":15.40296585,"ECCENTRICITY":0.00019103,"INCLINATION":53.1589,"RA_OF_ASC_NODE":225.0818,"ARG_OF_PERICENTER":168.0634,"MEAN_ANOMALY":192.0417,"EPHEMERIS_TYPE":0,"CLASSIFICATION_TYPE":"U","NORAD_CAT_ID":64918,"ELEMENT_SET_NO":999,"REV_AT_EPOCH":1649,"BSTAR":-0.017406895,"MEAN_MOTION_DOT":-0.0066238,"MEAN_MOTION_DDOT":0},{"OBJECT_NAME":"STARLINK-34599","OBJECT_ID":"2025-157R","EPOCH":"2025-11-02T08:00:01.999872","MEAN_MOTION":15.39596529,"ECCENTRICITY":0.00010978,"INCLINATION":53.1596,"RA_OF_ASC_NODE":223.4444,"ARG_OF_PERICENTER":102.8701,"MEAN_ANOMALY":29.1703,"EPHEMERIS_TYPE":0,"CLASSIFICATION_TYPE":"U","NORAD_CAT_ID":64919,"ELEMENT_SET_NO":999,"REV_AT_EPOCH":591,"BSTAR":0.00083430375,"MEAN_MOTION_DOT":0.00033091,"MEAN_MOTION_DDOT":0},{"OBJECT_NAME":"STARLINK-34069","OBJECT_ID":"2025-157S","EPOCH":"2025-11-02T06:52:35.258016","MEAN_MOTION":15.39189033,"ECCENTRICITY":0.00047312,"INCLINATION":53.159,"RA_OF_ASC_NODE":224.1355,"ARG_OF_PERICENTER":63.8534,"MEAN_ANOMALY":296.2957,"EPHEMERIS_TYPE":0,"CLASSIFICATION_TYPE":"U","NORAD_CAT_ID":64920,"ELEMENT_SET_NO":999,"REV_AT_EPOCH":1652,"BSTAR":0.0019714895,"MEAN_MOTION_DOT":0.00078174,"MEAN_MOTION_DDOT":0},{"OBJECT_NAME":"STARLINK-34699","OBJECT_ID":"2025-157T","EPOCH":"2025-11-02T00:31:24.530016","MEAN_MOTION":15.39640665,"ECCENTRICITY":0.0001885,"INCLINATION":53.1605,"RA_OF_ASC_NODE":225.3267,"ARG_OF_PERICENTER":130.2255,"MEAN_ANOMALY":229.8915,"EPHEMERIS_TYPE":0,"CLASSIFICATION_TYPE":"U","NORAD_CAT_ID":64921,"ELEMENT_SET_NO":999,"REV_AT_EPOCH":1648,"BSTAR":0.0013306592,"MEAN_MOTION_DOT":0.00053235,"MEAN_MOTION_DDOT":0},{"OBJECT_NAME":"STARLINK-34700","OBJECT_ID":"2025-157U","EPOCH":"2025-11-02T06:31:56.534304","MEAN_MOTION":15.39671654,"ECCENTRICITY":0.00011822,"INCLINATION":53.1582,"RA_OF_ASC_NODE":224.0453,"ARG_OF_PERICENTER":116.53,"MEAN_ANOMALY":243.5826,"EPHEMERIS_TYPE":0,"CLASSIFICATION_TYPE":"U","NORAD_CAT_ID":64922,"ELEMENT_SET_NO":999,"REV_AT_EPOCH":1647,"BSTAR":0.0018078945,"MEAN_MOTION_DOT":0.00072731,"MEAN_MOTION_DDOT":0},{"OBJECT_NAME":"STARLINK-34643","OBJECT_ID":"2025-157V","EPOCH":"2025-11-02T01:38:37.989600","MEAN_MOTION":15.39670348,"ECCENTRICITY":8.135e-5,"INCLINATION":53.1588,"RA_OF_ASC_NODE":224.9036,"ARG_OF_PERICENTER":91.0481,"MEAN_ANOMALY":269.0618,"EPHEMERIS_TYPE":0,"CLASSIFICATION_TYPE":"U","NORAD_CAT_ID":64923,"ELEMENT_SET_NO":999,"REV_AT_EPOCH":1649,"BSTAR":0.0019610134,"MEAN_MOTION_DOT":0.00078987,"MEAN_MOTION_DDOT":0},{"OBJECT_NAME":"STARLINK-34199","OBJECT_ID":"2025-157W","EPOCH":"2025-11-02T08:00:01.999872","MEAN_MOTION":15.39600673,"ECCENTRICITY":0.0001308,"INCLINATION":53.1581,"RA_OF_ASC_NODE":223.7076,"ARG_OF_PERICENTER":80.2787,"MEAN_ANOMALY":283.0049,"EPHEMERIS_TYPE":0,"CLASSIFICATION_TYPE":"U","NORAD_CAT_ID":64924,"ELEMENT_SET_NO":999,"REV_AT_EPOCH":586,"BSTAR":0.0007727539,"MEAN_MOTION_DOT":0.00030614,"MEAN_MOTION_DDOT":0}]
